[{"OBJECT_NAME":"ONEWEB-0300","OBJECT_ID":"2021-075Q","EPOCH":"2025-08-01T12:25:34.222944","MEAN_MOTION":13.12442508,"ECCENTRICITY":0.0002068,"INCLINATION":87.885,"RA_OF_ASC_NODE":54.2005,"ARG_OF_PERICENTER":91.0117,"MEAN_ANOMALY":269.1248,"EPHEMERIS_TYPE":0,"CLASSIFICATION_TYPE":"U","NORAD_CAT_ID":49089,"ELEMENT_SET_NO":999,"REV_AT_EPOCH":19327,"BSTAR":-0.00099135,"MEAN_MOTION_DOT":-3.44e-6,"MEAN_MOTION_DDOT":0},{"OBJECT_NAME":"ONEWEB-0301","OBJECT_ID":"2021-075R","EPOCH":"2025-08-01T12:02:12.814944","MEAN_MOTION":13.12442203,"ECCENTRICITY":0.0002175,"INCLINATION":87.8846,"RA_OF_ASC_NODE":54.2093,"ARG_OF_PERICENTER":91.3703,"MEAN_ANOMALY":268.7674,"EPHEMERIS_TYPE":0,"CLASSIFICATION_TYPE":"U","NORAD_CAT_ID":49090,"ELEMENT_SET_NO":999,"REV_AT_EPOCH":19362,"BSTAR":-0.00098377,"MEAN_MOTION_DOT":-3.41e-6,"MEAN_MOTION_DDOT":0},{"OBJECT_NAME":"ONEWEB-0302","OBJECT_ID":"2021-075S","EPOCH":"2025-08-01T11:43:33.204864","MEAN_MOTION":13.12439389,"ECCENTRICITY":0.0001445,"INCLINATION":87.8851,"RA_OF_ASC_NODE":54.2144,"ARG_OF_PERICENTER":77.4549,"MEAN_ANOMALY":282.6741,"EPHEMERIS_TYPE":0,"CLASSIFICATION_TYPE":"U","NORAD_CAT_ID":49091,"ELEMENT_SET_NO":999,"REV_AT_EPOCH":19361,"BSTAR":2.8389e-5,"MEAN_MOTION_DOT":2.3e-7,"MEAN_MOTION_DDOT":0},{"OBJECT_NAME":"ONEWEB-0304","OBJECT_ID":"2021-075T","EPOCH":"2025-08-01T02:20:13.498944","MEAN_MOTION":13.17650326,"ECCENTRICITY":0.0001649,"INCLINATION":87.9038,"RA_OF_ASC_NODE":69.5708,"ARG_OF_PERICENTER":86.3448,"MEAN_ANOMALY":273.7872,"EPHEMERIS_TYPE":0,"CLASSIFICATION_TYPE":"U","NORAD_CAT_ID":49092,"ELEMENT_SET_NO":999,"REV_AT_EPOCH":19142,"BSTAR":0.00011049,"MEAN_MOTION_DOT":5.6e-7,"MEAN_MOTION_DDOT":0},{"OBJECT_NAME":"ONEWEB-0305","OBJECT_ID":"2021-075U","EPOCH":"2025-08-01T03:59:50.771904","MEAN_MOTION":13.176475,"ECCENTRICITY":0.0001497,"INCLINATION":87.9032,"RA_OF_ASC_NODE":69.5335,"ARG_OF_PERICENTER":94.7961,"MEAN_ANOMALY":265.3341,"EPHEMERIS_TYPE":0,"CLASSIFICATION_TYPE":"U","NORAD_CAT_ID":49093,"ELEMENT_SET_NO":999,"REV_AT_EPOCH":19146,"BSTAR":6.353e-5,"MEAN_MOTION_DOT":3.8e-7,"MEAN_MOTION_DDOT":0},{"OBJECT_NAME":"ONEWEB-0308","OBJECT_ID":"2021-075V","EPOCH":"2025-08-01T20:43:05.990592","MEAN_MOTION":13.12442526,"ECCENTRICITY":0.0001771,"INCLINATION":87.8849,"RA_OF_ASC_NODE":54.1332,"ARG_OF_PERICENTER":86.0925,"MEAN_ANOMALY":274.0406,"EPHEMERIS_TYPE":0,"CLASSIFICATION_TYPE":"U","NORAD_CAT_ID":49094,"ELEMENT_SET_NO":999,"REV_AT_EPOCH":19369,"BSTAR":0.00098651,"MEAN_MOTION_DOT":3.68e-6,"MEAN_MOTION_DDOT":0},{"OBJECT_NAME":"ONEWEB-0309","OBJECT_ID":"2021-075W","EPOCH":"2025-08-01T02:15:21.437568","MEAN_MOTION":13.17648918,"ECCENTRICITY":0.0001512,"INCLINATION":87.9035,"RA_OF_ASC_NODE":69.5655,"ARG_OF_PERICENTER":69.914,"MEAN_ANOMALY":290.2154,"EPHEMERIS_TYPE":0,"CLASSIFICATION_TYPE":"U","NORAD_CAT_ID":49095,"ELEMENT_SET_NO":999,"REV_AT_EPOCH":19142,"BSTAR":-0.00031618,"MEAN_MOTION_DOT":-1.1e-6,"MEAN_MOTION_DDOT":0},{"OBJECT_NAME":"ONEWEB-0310","OBJECT_ID":"2021-075X","EPOCH":"2025-08-01T13:44:59.210592","MEAN_MOTION":13.12442339,"ECCENTRICITY":0.0001656,"INCLINATION":87.8853,"RA_OF_ASC_NODE":54.2369,"ARG_OF_PERICENTER":83.3279,"MEAN_ANOMALY":276.8038,"EPHEMERIS_TYPE":0,"CLASSIFICATION_TYPE":"U","NORAD_CAT_ID":49096,"ELEMENT_SET_NO":999,"REV_AT_EPOCH":19326,"BSTAR":-0.00044812,"MEAN_MOTION_DOT":-1.48e-6,"MEAN_MOTION_DDOT":0},{"OBJECT_NAME":"ONEWEB-0311","OBJECT_ID":"2021-075Y","EPOCH":"2025-08-01T13:21:10.519200","MEAN_MOTION":13.17647965,"ECCENTRICITY":0.0001557,"INCLINATION":87.9031,"RA_OF_ASC_NODE":69.4734,"ARG_OF_PERICENTER":95.5866,"MEAN_ANOMALY":264.5443,"EPHEMERIS_TYPE":0,"CLASSIFICATION_TYPE":"U","NORAD_CAT_ID":49097,"ELEMENT_SET_NO":999,"REV_AT_EPOCH":19153,"BSTAR":-0.00021228,"MEAN_MOTION_DOT":-7.0e-7,"MEAN_MOTION_DDOT":0},{"OBJECT_NAME":"ONEWEB-0312","OBJECT_ID":"2021-075Z","EPOCH":"2025-08-01T11:53:42.826848","MEAN_MOTION":13.17648853,"ECCENTRICITY":0.0001386,"INCLINATION":87.9031,"RA_OF_ASC_NODE":69.517,"ARG_OF_PERICENTER":85.0974,"MEAN_ANOMALY":275.0316,"EPHEMERIS_TYPE":0,"CLASSIFICATION_TYPE":"U","NORAD_CAT_ID":49098,"ELEMENT_SET_NO":999,"REV_AT_EPOCH":19150,"BSTAR":-0.00012056,"MEAN_MOTION_DOT":-3.4e-7,"MEAN_MOTION_DDOT":0},{"OBJECT_NAME":"ONEWEB-0313","OBJECT_ID":"2021-075AA","EPOCH":"2025-08-01T12:00:47.036160","MEAN_MOTION":13.1765041,"ECCENTRICITY":0.0001786,"INCLINATION":87.9026,"RA_OF_ASC_NODE":69.5303,"ARG_OF_PERICENTER":87.6676,"MEAN_ANOMALY":272.466,"EPHEMERIS_TYPE":0,"CLASSIFICATION_TYPE":"U","NORAD_CAT_ID":49099,"ELEMENT_SET_NO":999,"REV_AT_EPOCH":19149,"BSTAR":-5.3403e-5,"MEAN_MOTION_DOT":-8.0e-8,"MEAN_MOTION_DDOT":0},{"OBJECT_NAME":"ONEWEB-0314","OBJECT_ID":"2021-075AB","EPOCH":"2025-08-01T14:51:06.331392","MEAN_MOTION":13.1764959,"ECCENTRICITY":0.0001394,"INCLINATION":87.9037,"RA_OF_ASC_NODE":69.4401,"ARG_OF_PERICENTER":86.3875,"MEAN_ANOMALY":273.7416,"EPHEMERIS_TYPE":0,"CLASSIFICATION_TYPE":"U","NORAD_CAT_ID":49100,"ELEMENT_SET_NO":999,"REV_AT_EPOCH":19148,"BSTAR":3.4865e-5,"MEAN_MOTION_DOT":2.6e-7,"MEAN_MOTION_DDOT":0},{"OBJECT_NAME":"ONEWEB-0315","OBJECT_ID":"2021-075AC","EPOCH":"2025-08-01T13:07:37.721568","MEAN_MOTION":13.12443998,"ECCENTRICITY":0.0001764,"INCLINATION":87.8852,"RA_OF_ASC_NODE":54.1871,"ARG_OF_PERICENTER":99.3448,"MEAN_ANOMALY":260.7879,"EPHEMERIS_TYPE":0,"CLASSIFICATION_TYPE":"U","NORAD_CAT_ID":49101,"ELEMENT_SET_NO":999,"REV_AT_EPOCH":19324,"BSTAR":0.0010393,"MEAN_MOTION_DOT":3.87e-6,"MEAN_MOTION_DDOT":0},{"OBJECT_NAME":"ONEWEB-0316","OBJECT_ID":"2021-075AD","EPOCH":"2025-08-01T11:47:17.476800","MEAN_MOTION":13.18685789,"ECCENTRICITY":0.0001814,"INCLINATION":87.9126,"RA_OF_ASC_NODE":38.9718,"ARG_OF_PERICENTER":95.9146,"MEAN_ANOMALY":264.2193,"EPHEMERIS_TYPE":0,"CLASSIFICATION_TYPE":"U","NORAD_CAT_ID":49102,"ELEMENT_SET_NO":999,"REV_AT_EPOCH":19507,"BSTAR":3.8285e-5,"MEAN_MOTION_DOT":2.8e-7,"MEAN_MOTION_DDOT":0},{"OBJECT_NAME":"ONEWEB-0317","OBJECT_ID":"2021-075AE","EPOCH":"2025-08-01T12:58:16.899168","MEAN_MOTION":13.12444045,"ECCENTRICITY":0.0001858,"INCLINATION":87.8849,"RA_OF_ASC_NODE":54.2035,"ARG_OF_PERICENTER":60.2759,"MEAN_ANOMALY":299.8555,"EPHEMERIS_TYPE":0,"CLASSIFICATION_TYPE":"U","NORAD_CAT_ID":49103,"ELEMENT_SET_NO":999,"REV_AT_EPOCH":19326,"BSTAR":0.0008985,"MEAN_MOTION_DOT":3.36e-6,"MEAN_MOTION_DDOT":0},{"OBJECT_NAME":"ONEWEB-0318","OBJECT_ID":"2021-075AF","EPOCH":"2025-08-01T11:42:32.219424","MEAN_MOTION":13.18685969,"ECCENTRICITY":0.0001771,"INCLINATION":87.9126,"RA_OF_ASC_NODE":38.9585,"ARG_OF_PERICENTER":97.513,"MEAN_ANOMALY":262.6203,"EPHEMERIS_TYPE":0,"CLASSIFICATION_TYPE":"U","NORAD_CAT_ID":49104,"ELEMENT_SET_NO":999,"REV_AT_EPOCH":19503,"BSTAR":-2.2857e-5,"MEAN_MOTION_DOT":4.0e-8,"MEAN_MOTION_DDOT":0},{"OBJECT_NAME":"ONEWEB-0319","OBJECT_ID":"2021-075AG","EPOCH":"2025-08-01T09:44:54.908448","MEAN_MOTION":13.17649438,"ECCENTRICITY":0.0001568,"INCLINATION":87.9031,"RA_OF_ASC_NODE":69.5283,"ARG_OF_PERICENTER":97.8891,"MEAN_ANOMALY":262.2418,"EPHEMERIS_TYPE":0,"CLASSIFICATION_TYPE":"U","NORAD_CAT_ID":49105,"ELEMENT_SET_NO":999,"REV_AT_EPOCH":19149,"BSTAR":-7.4777e-5,"MEAN_MOTION_DOT":-1.6e-7,"MEAN_MOTION_DDOT":0},{"OBJECT_NAME":"ONEWEB-0323","OBJECT_ID":"2021-075AH","EPOCH":"2025-08-01T20:03:23.222016","MEAN_MOTION":13.12443479,"ECCENTRICITY":0.0001483,"INCLINATION":87.8851,"RA_OF_ASC_NODE":54.1302,"ARG_OF_PERICENTER":111.0765,"MEAN_ANOMALY":249.0522,"EPHEMERIS_TYPE":0,"CLASSIFICATION_TYPE":"U","NORAD_CAT_ID":49106,"ELEMENT_SET_NO":999,"REV_AT_EPOCH":19366,"BSTAR":-2.011e-5,"MEAN_MOTION_DOT":5.0e-8,"MEAN_MOTION_DDOT":0},{"OBJECT_NAME":"ONEWEB-0329","OBJECT_ID":"2021-075AJ","EPOCH":"2025-08-01T02:39:39.665664","MEAN_MOTION":13.17648425,"ECCENTRICITY":0.0001554,"INCLINATION":87.903,"RA_OF_ASC_NODE":69.5919,"ARG_OF_PERICENTER":89.2124,"MEAN_ANOMALY":270.9185,"EPHEMERIS_TYPE":0,"CLASSIFICATION_TYPE":"U","NORAD_CAT_ID":49107,"ELEMENT_SET_NO":999,"REV_AT_EPOCH":19143,"BSTAR":-0.00015837,"MEAN_MOTION_DOT":-4.9e-7,"MEAN_MOTION_DDOT":0},{"OBJECT_NAME":"ONEWEB-0330","OBJECT_ID":"2021-075AK","EPOCH":"2025-08-01T02:41:07.049760","MEAN_MOTION":13.17726407,"ECCENTRICITY":0.0001489,"INCLINATION":87.9027,"RA_OF_ASC_NODE":69.5939,"ARG_OF_PERICENTER":81.0812,"MEAN_ANOMALY":279.0488,"EPHEMERIS_TYPE":0,"CLASSIFICATION_TYPE":"U","NORAD_CAT_ID":49108,"ELEMENT_SET_NO":999,"REV_AT_EPOCH":19147,"BSTAR":0.00011646,"MEAN_MOTION_DOT":5.8e-7,"MEAN_MOTION_DDOT":0},{"OBJECT_NAME":"ONEWEB-0292","OBJECT_ID":"2021-083A","EPOCH":"2025-08-01T12:35:05.999136","MEAN_MOTION":13.13470057,"ECCENTRICITY":0.0001801,"INCLINATION":87.897,"RA_OF_ASC_NODE":23.771,"ARG_OF_PERICENTER":98.3968,"MEAN_ANOMALY":261.7365,"EPHEMERIS_TYPE":0,"CLASSIFICATION_TYPE":"U","NORAD_CAT_ID":49186,"ELEMENT_SET_NO":999,"REV_AT_EPOCH":18896,"BSTAR":0.00056635,"MEAN_MOTION_DOT":2.2e-6,"MEAN_MOTION_DDOT":0},{"OBJECT_NAME":"ONEWEB-0303","OBJECT_ID":"2021-083B","EPOCH":"2025-08-01T11:37:46.128288","MEAN_MOTION":13.1868449,"ECCENTRICITY":0.0001763,"INCLINATION":87.9124,"RA_OF_ASC_NODE":38.9598,"ARG_OF_PERICENTER":94.5243,"MEAN_ANOMALY":265.6091,"EPHEMERIS_TYPE":0,"CLASSIFICATION_TYPE":"U","NORAD_CAT_ID":49187,"ELEMENT_SET_NO":999,"REV_AT_EPOCH":18784,"BSTAR":4.0949e-6,"MEAN_MOTION_DOT":1.5e-7,"MEAN_MOTION_DDOT":0},{"OBJECT_NAME":"ONEWEB-0306","OBJECT_ID":"2021-083C","EPOCH":"2025-08-01T11:23:31.126848","MEAN_MOTION":13.18684405,"ECCENTRICITY":0.0001851,"INCLINATION":87.9127,"RA_OF_ASC_NODE":38.9472,"ARG_OF_PERICENTER":82.6776,"MEAN_ANOMALY":277.4567,"EPHEMERIS_TYPE":0,"CLASSIFICATION_TYPE":"U","NORAD_CAT_ID":49188,"ELEMENT_SET_NO":999,"REV_AT_EPOCH":18916,"BSTAR":0.00013202,"MEAN_MOTION_DOT":6.5e-7,"MEAN_MOTION_DDOT":0},{"OBJECT_NAME":"ONEWEB-0307","OBJECT_ID":"2021-083D","EPOCH":"2025-08-01T12:26:34.907712","MEAN_MOTION":13.13470925,"ECCENTRICITY":0.0001615,"INCLINATION":87.8955,"RA_OF_ASC_NODE":23.7751,"ARG_OF_PERICENTER":82.7983,"MEAN_ANOMALY":277.333,"EPHEMERIS_TYPE":0,"CLASSIFICATION_TYPE":"U","NORAD_CAT_ID":49189,"ELEMENT_SET_NO":999,"REV_AT_EPOCH":18896,"BSTAR":-6.9978e-6,"MEAN_MOTION_DOT":1.0e-7,"MEAN_MOTION_DDOT":0}]
